{
  "type": "FeatureCollection",
  "features": [
    {
      "type": "Feature",
      "properties": {
        "norad_id": 30739,
        "name": "FENGYUN 1C DEB",
        "group": "fengyun-1c-debris",
        "lat": 55.68342550811039,
        "lon": -26.21180131129769,
        "alt_km": 890.1561706157872,
        "timestamp": "2025-12-25T22:42:17.289802+00:00",
        "meta_object_name": "FENGYUN 1C DEB",
        "meta_object_id": "1999-025ASZ",
        "meta_epoch": "2025-12-25T11:16:56.129376",
        "meta_mean_motion": 14.1497308,
        "meta_eccentricity": 0.0100112,
        "meta_inclination": 98.6935,
        "meta_ra_of_asc_node": 346.2776,
        "meta_arg_of_pericenter": 280.4399,
        "meta_mean_anomaly": 232.4856,
        "meta_ephemeris_type": 0,
        "meta_classification_type": "U",
        "meta_norad_cat_id": 30739,
        "meta_element_set_no": 999,
        "meta_rev_at_epoch": 97043,
        "meta_bstar": 0.00036985,
        "meta_mean_motion_dot": 7.07e-06,
        "meta_mean_motion_ddot": 0,
        "tle_line1": "1 30739U 99025ASZ 25359.47009409  .00000707  00000+0  36985-3 0  9991",
        "tle_line2": "2 30739  98.6935 346.2776 0100112 280.4399 232.4856 14.14973080970439"
      },
      "geometry": {
        "type": "Point",
        "coordinates": [
          -26.21180131129769,
          55.68342550811039
        ]
      }
    },
    {
      "type": "Feature",
      "properties": {
        "norad_id": 30740,
        "name": "FENGYUN 1C DEB",
        "group": "fengyun-1c-debris",
        "lat": 32.778670052429966,
        "lon": 99.85249630718678,
        "alt_km": 706.7851756275886,
        "timestamp": "2025-12-25T22:42:17.289817+00:00",
        "meta_object_name": "FENGYUN 1C DEB",
        "meta_object_id": "1999-025ATA",
        "meta_epoch": "2025-12-24T18:26:23.859744",
        "meta_mean_motion": 14.52140377,
        "meta_eccentricity": 0.00307037,
        "meta_inclination": 98.6886,
        "meta_ra_of_asc_node": 104.2854,
        "meta_arg_of_pericenter": 100.2899,
        "meta_mean_anomaly": 260.1759,
        "meta_ephemeris_type": 0,
        "meta_classification_type": "U",
        "meta_norad_cat_id": 30740,
        "meta_element_set_no": 999,
        "meta_rev_at_epoch": 97822,
        "meta_bstar": 0.0024640921,
        "meta_mean_motion_dot": 0.00010009,
        "meta_mean_motion_ddot": 0,
        "tle_line1": "1 30740U 99025ATA 25358.76833171  .00010009  00000+0  24641-2 0  9996",
        "tle_line2": "2 30740  98.6886 104.2854 0030703 100.2899 260.1759 14.52140377978229"
      },
      "geometry": {
        "type": "Point",
        "coordinates": [
          99.85249630718678,
          32.778670052429966
        ]
      }
    },
    {
      "type": "Feature",
      "properties": {
        "norad_id": 30741,
        "name": "FENGYUN 1C DEB",
        "group": "fengyun-1c-debris",
        "lat": -41.809551985500164,
        "lon": -179.03699389974807,
        "alt_km": 858.7124009315858,
        "timestamp": "2025-12-25T22:42:17.289828+00:00",
        "meta_object_name": "FENGYUN 1C DEB",
        "meta_object_id": "1999-025ATB",
        "meta_epoch": "2025-12-24T23:49:37.047360",
        "meta_mean_motion": 14.13241522,
        "meta_eccentricity": 0.00071939,
        "meta_inclination": 98.6793,
        "meta_ra_of_asc_node": 7.8908,
        "meta_arg_of_pericenter": 86.8885,
        "meta_mean_anomaly": 328.2995,
        "meta_ephemeris_type": 0,
        "meta_classification_type": "U",
        "meta_norad_cat_id": 30741,
        "meta_element_set_no": 999,
        "meta_rev_at_epoch": 96992,
        "meta_bstar": 0.00014678969,
        "meta_mean_motion_dot": 2.32e-06,
        "meta_mean_motion_ddot": 0,
        "tle_line1": "1 30741U 99025ATB 25358.99278990  .00000232  00000+0  14679-3 0  9992",
        "tle_line2": "2 30741  98.6793   7.8908 0007193  86.8885 328.2995 14.13241522969922"
      },
      "geometry": {
        "type": "Point",
        "coordinates": [
          -179.03699389974807,
          -41.809551985500164
        ]
      }
    },
    {
      "type": "Feature",
      "properties": {
        "norad_id": 30742,
        "name": "FENGYUN 1C DEB",
        "group": "fengyun-1c-debris",
        "lat": 80.07777715940442,
        "lon": -18.97423968987096,
        "alt_km": 862.9814446276887,
        "timestamp": "2025-12-25T22:42:17.289838+00:00",
        "meta_object_name": "FENGYUN 1C DEB",
        "meta_object_id": "1999-025ATC",
        "meta_epoch": "2025-12-24T14:40:32.394720",
        "meta_mean_motion": 14.10427133,
        "meta_eccentricity": 0.00716659,
        "meta_inclination": 98.8666,
        "meta_ra_of_asc_node": 42.8802,
        "meta_arg_of_pericenter": 193.6733,
        "meta_mean_anomaly": 320.2072,
        "meta_ephemeris_type": 0,
        "meta_classification_type": "U",
        "meta_norad_cat_id": 30742,
        "meta_element_set_no": 999,
        "meta_rev_at_epoch": 96209,
        "meta_bstar": 0.0013466236,
        "meta_mean_motion_dot": 2.409e-05,
        "meta_mean_motion_ddot": 0,
        "tle_line1": "1 30742U 99025ATC 25358.61148605  .00002409  00000+0  13466-2 0  9991",
        "tle_line2": "2 30742  98.8666  42.8802 0071665 193.6733 320.2072 14.10427133962090"
      },
      "geometry": {
        "type": "Point",
        "coordinates": [
          -18.97423968987096,
          80.07777715940442
        ]
      }
    },
    {
      "type": "Feature",
      "properties": {
        "norad_id": 30744,
        "name": "FENGYUN 1C DEB",
        "group": "fengyun-1c-debris",
        "lat": 35.52512508246512,
        "lon": 141.12948062514954,
        "alt_km": 599.9942862386388,
        "timestamp": "2025-12-25T22:42:17.289849+00:00",
        "meta_object_name": "FENGYUN 1C DEB",
        "meta_object_id": "1999-025ATE",
        "meta_epoch": "2025-12-24T21:26:52.833120",
        "meta_mean_motion": 14.9054096,
        "meta_eccentricity": 0.0010461,
        "meta_inclination": 98.7302,
        "meta_ra_of_asc_node": 146.2658,
        "meta_arg_of_pericenter": 246.7691,
        "meta_mean_anomaly": 265.5222,
        "meta_ephemeris_type": 0,
        "meta_classification_type": "U",
        "meta_norad_cat_id": 30744,
        "meta_element_set_no": 999,
        "meta_rev_at_epoch": 98269,
        "meta_bstar": 0.0051803,
        "meta_mean_motion_dot": 0.00050971,
        "meta_mean_motion_ddot": 0,
        "tle_line1": "1 30744U 99025ATE 25358.89366705  .00050971  00000+0  51803-2 0  9990",
        "tle_line2": "2 30744  98.7302 146.2658 0010461 246.7691 265.5222 14.90540960982694"
      },
      "geometry": {
        "type": "Point",
        "coordinates": [
          141.12948062514954,
          35.52512508246512
        ]
      }
    },
    {
      "type": "Feature",
      "properties": {
        "norad_id": 30746,
        "name": "FENGYUN 1C DEB",
        "group": "fengyun-1c-debris",
        "lat": 24.583033903052957,
        "lon": 5.201647820872409,
        "alt_km": 817.9586400987964,
        "timestamp": "2025-12-25T22:42:17.289860+00:00",
        "meta_object_name": "FENGYUN 1C DEB",
        "meta_object_id": "1999-025ATG",
        "meta_epoch": "2025-12-25T10:29:17.744352",
        "meta_mean_motion": 14.27542758,
        "meta_eccentricity": 0.0046004,
        "meta_inclination": 99.0574,
        "meta_ra_of_asc_node": 180.4896,
        "meta_arg_of_pericenter": 281.226,
        "meta_mean_anomaly": 139.7137,
        "meta_ephemeris_type": 0,
        "meta_classification_type": "U",
        "meta_norad_cat_id": 30746,
        "meta_element_set_no": 999,
        "meta_rev_at_epoch": 97627,
        "meta_bstar": 0.00045072,
        "meta_mean_motion_dot": 1.073e-05,
        "meta_mean_motion_ddot": 0,
        "tle_line1": "1 30746U 99025ATG 25359.43701093  .00001073  00000+0  45072-3 0  9997",
        "tle_line2": "2 30746  99.0574 180.4896 0046004 281.2260 139.7137 14.27542758976274"
      },
      "geometry": {
        "type": "Point",
        "coordinates": [
          5.201647820872409,
          24.583033903052957
        ]
      }
    },
    {
      "type": "Feature",
      "properties": {
        "norad_id": 30749,
        "name": "FENGYUN 1C DEB",
        "group": "fengyun-1c-debris",
        "lat": -77.8282484370269,
        "lon": 72.86175927243796,
        "alt_km": 896.1256184820659,
        "timestamp": "2025-12-25T22:42:17.289870+00:00",
        "meta_object_name": "FENGYUN 1C DEB",
        "meta_object_id": "1999-025ATK",
        "meta_epoch": "2025-12-25T00:47:45.191616",
        "meta_mean_motion": 13.99838458,
        "meta_eccentricity": 0.00563877,
        "meta_inclination": 98.8856,
        "meta_ra_of_asc_node": 25.4836,
        "meta_arg_of_pericenter": 198.3336,
        "meta_mean_anomaly": 161.5797,
        "meta_ephemeris_type": 0,
        "meta_classification_type": "U",
        "meta_norad_cat_id": 30749,
        "meta_element_set_no": 999,
        "meta_rev_at_epoch": 96138,
        "meta_bstar": -4.947945e-05,
        "meta_mean_motion_dot": -1.16e-06,
        "meta_mean_motion_ddot": 0,
        "tle_line1": "1 30749U 99025ATK 25359.03316194 -.00000116  00000+0 -49479-4 0  9995",
        "tle_line2": "2 30749  98.8856  25.4836 0056387 198.3336 161.5797 13.99838458961380"
      },
      "geometry": {
        "type": "Point",
        "coordinates": [
          72.86175927243796,
          -77.8282484370269
        ]
      }
    }
  ]
}